{
  "type": "FeatureCollection",
  "features": [
    {
      "type": "Feature",
      "properties": {
        "norad_id": 27954,
        "name": "GALAXY 13 (HORIZONS-1)",
        "group": "intelsat",
        "lat": 0.47925230673392155,
        "lon": 114.56894101553273,
        "alt_km": 35795.22451091694,
        "timestamp": "2025-12-22T11:33:20.096741+00:00",
        "meta_object_name": "GALAXY 13 (HORIZONS-1)",
        "meta_object_id": "2003-044A",
        "meta_epoch": "2025-12-22T02:10:48.740160",
        "meta_mean_motion": 1.00270519,
        "meta_eccentricity": 0.0002372,
        "meta_inclination": 0.9608,
        "meta_ra_of_asc_node": 86.3495,
        "meta_arg_of_pericenter": 180.4067,
        "meta_mean_anomaly": 66.8212,
        "meta_ephemeris_type": 0,
        "meta_classification_type": "U",
        "meta_norad_cat_id": 27954,
        "meta_element_set_no": 999,
        "meta_rev_at_epoch": 4479,
        "meta_bstar": 0,
        "meta_mean_motion_dot": 1.54e-06,
        "meta_mean_motion_ddot": 0,
        "tle_line1": "1 27954U 03044A   25356.09084190  .00000154  00000+0  00000+0 0  9998",
        "tle_line2": "2 27954   0.9608  86.3495 0002372 180.4067  66.8212  1.00270519 44791"
      },
      "geometry": {
        "type": "Point",
        "coordinates": [
          114.56894101553273,
          0.47925230673392155
        ]
      }
    },
    {
      "type": "Feature",
      "properties": {
        "norad_id": 28358,
        "name": "INTELSAT 10-02",
        "group": "intelsat",
        "lat": -0.019800281036931575,
        "lon": -96.35629600234894,
        "alt_km": 35783.083885409076,
        "timestamp": "2025-12-22T11:33:20.096753+00:00",
        "meta_object_name": "INTELSAT 10-02",
        "meta_object_id": "2004-022A",
        "meta_epoch": "2025-12-22T01:10:32.793024",
        "meta_mean_motion": 1.00271641,
        "meta_eccentricity": 9.95e-05,
        "meta_inclination": 0.0191,
        "meta_ra_of_asc_node": 73.3386,
        "meta_arg_of_pericenter": 234.5255,
        "meta_mean_anomaly": 159.6716,
        "meta_ephemeris_type": 0,
        "meta_classification_type": "U",
        "meta_norad_cat_id": 28358,
        "meta_element_set_no": 999,
        "meta_rev_at_epoch": 7878,
        "meta_bstar": 0,
        "meta_mean_motion_dot": 1.1e-07,
        "meta_mean_motion_ddot": 0,
        "tle_line1": "1 28358U 04022A   25356.04899066  .00000011  00000+0  00000+0 0  9997",
        "tle_line2": "2 28358   0.0191  73.3386 0000995 234.5255 159.6716  1.00271641 78785"
      },
      "geometry": {
        "type": "Point",
        "coordinates": [
          -96.35629600234894,
          -0.019800281036931575
        ]
      }
    },
    {
      "type": "Feature",
      "properties": {
        "norad_id": 28626,
        "name": "XM-3 (RHYTHM)",
        "group": "intelsat",
        "lat": -0.19972424082113457,
        "lon": -27.40679935043059,
        "alt_km": 36153.20028749214,
        "timestamp": "2025-12-22T11:33:20.096765+00:00",
        "meta_object_name": "XM-3 (RHYTHM)",
        "meta_object_id": "2005-008A",
        "meta_epoch": "2025-12-22T03:13:27.739776",
        "meta_mean_motion": 0.98949851,
        "meta_eccentricity": 0.000201,
        "meta_inclination": 0.1976,
        "meta_ra_of_asc_node": 82.0468,
        "meta_arg_of_pericenter": 277.1097,
        "meta_mean_anomaly": 209.796,
        "meta_ephemeris_type": 0,
        "meta_classification_type": "U",
        "meta_norad_cat_id": 28626,
        "meta_element_set_no": 999,
        "meta_rev_at_epoch": 4084,
        "meta_bstar": 0,
        "meta_mean_motion_dot": 9.3e-07,
        "meta_mean_motion_ddot": 0,
        "tle_line1": "1 28626U 05008A   25356.13434884  .00000093  00000+0  00000+0 0  9993",
        "tle_line2": "2 28626   0.1976  82.0468 0002010 277.1097 209.7960  0.98949851 40845"
      },
      "geometry": {
        "type": "Point",
        "coordinates": [
          -27.40679935043059,
          -0.19972424082113457
        ]
      }
    },
    {
      "type": "Feature",
      "properties": {
        "norad_id": 28659,
        "name": "DIRECTV 8",
        "group": "intelsat",
        "lat": 0.033068577716615664,
        "lon": 145.54773821274557,
        "alt_km": 35795.086033861604,
        "timestamp": "2025-12-22T11:33:20.096776+00:00",
        "meta_object_name": "DIRECTV 8",
        "meta_object_id": "2005-019A",
        "meta_epoch": "2025-12-22T03:48:31.715424",
        "meta_mean_motion": 1.00271386,
        "meta_eccentricity": 0.0002909,
        "meta_inclination": 0.0184,
        "meta_ra_of_asc_node": 20.4819,
        "meta_arg_of_pericenter": 261.4603,
        "meta_mean_anomaly": 107.1167,
        "meta_ephemeris_type": 0,
        "meta_classification_type": "U",
        "meta_norad_cat_id": 28659,
        "meta_element_set_no": 999,
        "meta_rev_at_epoch": 7529,
        "meta_bstar": 0,
        "meta_mean_motion_dot": 2.3e-07,
        "meta_mean_motion_ddot": 0,
        "tle_line1": "1 28659U 05019A   25356.15870041  .00000023  00000+0  00000+0 0  9995",
        "tle_line2": "2 28659   0.0184  20.4819 0002909 261.4603 107.1167  1.00271386 75295"
      },
      "geometry": {
        "type": "Point",
        "coordinates": [
          145.54773821274557,
          0.033068577716615664
        ]
      }
    },
    {
      "type": "Feature",
      "properties": {
        "norad_id": 28702,
        "name": "GALAXY 28 (G-28)",
        "group": "intelsat",
        "lat": 2.841476058786621,
        "lon": 175.89862761845723,
        "alt_km": 35788.083734826956,
        "timestamp": "2025-12-22T11:33:20.096788+00:00",
        "meta_object_name": "GALAXY 28 (G-28)",
        "meta_object_id": "2005-022A",
        "meta_epoch": "2025-12-20T00:49:30.482112",
        "meta_mean_motion": 1.00271047,
        "meta_eccentricity": 0.00029384,
        "meta_inclination": 2.8382,
        "meta_ra_of_asc_node": 81.1982,
        "meta_arg_of_pericenter": 194.0723,
        "meta_mean_anomaly": 97.2981,
        "meta_ephemeris_type": 0,
        "meta_classification_type": "U",
        "meta_norad_cat_id": 28702,
        "meta_element_set_no": 999,
        "meta_rev_at_epoch": 5017,
        "meta_bstar": 0,
        "meta_mean_motion_dot": -1.65e-06,
        "meta_mean_motion_ddot": 0,
        "tle_line1": "1 28702U 05022A   25354.03438058 -.00000165  00000+0  00000+0 0  9999",
        "tle_line2": "2 28702   2.8382  81.1982 0002938 194.0723  97.2981  1.00271047 50172"
      },
      "geometry": {
        "type": "Point",
        "coordinates": [
          175.89862761845723,
          2.841476058786621
        ]
      }
    },
    {
      "type": "Feature",
      "properties": {
        "norad_id": 29236,
        "name": "GALAXY 16 (G-16)",
        "group": "intelsat",
        "lat": 0.00023253154931363938,
        "lon": 165.57535447629164,
        "alt_km": 35789.55382544928,
        "timestamp": "2025-12-22T11:33:20.096799+00:00",
        "meta_object_name": "GALAXY 16 (G-16)",
        "meta_object_id": "2006-023A",
        "meta_epoch": "2025-12-22T02:25:24.842208",
        "meta_mean_motion": 1.00270847,
        "meta_eccentricity": 0.0002487,
        "meta_inclination": 0.0066,
        "meta_ra_of_asc_node": 110.493,
        "meta_arg_of_pericenter": 162.7571,
        "meta_mean_anomaly": 115.0059,
        "meta_ephemeris_type": 0,
        "meta_classification_type": "U",
        "meta_norad_cat_id": 29236,
        "meta_element_set_no": 999,
        "meta_rev_at_epoch": 7119,
        "meta_bstar": 0,
        "meta_mean_motion_dot": -1.05e-06,
        "meta_mean_motion_ddot": 0,
        "tle_line1": "1 29236U 06023A   25356.10098197 -.00000105  00000+0  00000+0 0  9994",
        "tle_line2": "2 29236   0.0066 110.4930 0002487 162.7571 115.0059  1.00270847 71192"
      },
      "geometry": {
        "type": "Point",
        "coordinates": [
          165.57535447629164,
          0.00023253154931363938
        ]
      }
    },
    {
      "type": "Feature",
      "properties": {
        "norad_id": 29494,
        "name": "DIRECTV 9S",
        "group": "intelsat",
        "lat": 1.9467256975318017,
        "lon": 163.37112264613506,
        "alt_km": 35790.31337146117,
        "timestamp": "2025-12-22T11:33:20.096811+00:00",
        "meta_object_name": "DIRECTV 9S",
        "meta_object_id": "2006-043A",
        "meta_epoch": "2025-12-22T00:41:58.031232",
        "meta_mean_motion": 1.00272253,
        "meta_eccentricity": 0.0002851,
        "meta_inclination": 1.9627,
        "meta_ra_of_asc_node": 83.115,
        "meta_arg_of_pericenter": 192.7143,
        "meta_mean_anomaly": 84.2937,
        "meta_ephemeris_type": 0,
        "meta_classification_type": "U",
        "meta_norad_cat_id": 29494,
        "meta_element_set_no": 999,
        "meta_rev_at_epoch": 4960,
        "meta_bstar": 0,
        "meta_mean_motion_dot": -9.3e-07,
        "meta_mean_motion_ddot": 0,
        "tle_line1": "1 29494U 06043A   25356.02914388 -.00000093  00000+0  00000+0 0  9998",
        "tle_line2": "2 29494   1.9627  83.1150 0002851 192.7143  84.2937  1.00272253 49600"
      },
      "geometry": {
        "type": "Point",
        "coordinates": [
          163.37112264613506,
          1.9467256975318017
        ]
      }
    }
  ]
}